STARLINK-30327          
1 57707U 23129K   26068.51769668  .00007635  00000+0  29314-3 0  9995
2 57707  42.9974  85.9834 0023030  70.8320 289.5022 15.26626807140903
STARLINK-35193          
1 65889U 25224H   26068.05691270  .00024822  00000+0  84703-3 0  9995
2 65889  53.1611  14.5512 0001214 120.2525 239.8597 15.30213872 24751
